STARLINK-1978
1 27576C 21009AE  21325.15225120  .00008544  00000-0  57233-3 0  3259
2 27576  53.0510 207.5530 0001617  67.6271 137.1613 15.06400051    16
